{"type": "FeatureCollection", "features": [ {"type": "Feature", "properties": {"norad_id": 33621, "name": "FENGYUN 1C DEB", "group": "fengyun-1c-debris", "lat": -36.82757531971517, "lon": 23.00750835833377, "alt_km": 674.170316476595, "timestamp": "2025-12-25T09:48:52.576814+00:00", "meta": {"OBJECT_NAME": "FENGYUN 1C DEB", "OBJECT_ID": "1999-025DDE", "EPOCH": "2025-12-10T20:17:14.702784", "MEAN_MOTION": 14.19482835, "ECCENTRICITY": 0.02846988, "INCLINATION": 98.1391, "RA_OF_ASC_NODE": 195.7496, "ARG_OF_PERICENTER": 300.0128, "MEAN_ANOMALY": 57.3079, "EPHEMERIS_TYPE": 0, "CLASSIFICATION_TYPE": "U", "NORAD_CAT_ID": 33621, "ELEMENT_SET_NO": 999, "REV_AT_EPOCH": 64217, "BSTAR": 0.00099524636, "MEAN_MOTION_DOT": 3.099e-05, "MEAN_MOTION_DDOT": 0}, "tle": {"line1": "1 33621U 99025DDE 25344.84530906  .00003099  00000+0  99525-3 0  9996", "line2": "2 33621  98.1391 195.7496 0284698 300.0128  57.3079 14.19482835642176"}}, "geometry": {"type": "Point", "coordinates": [23.00750835833377, -36.82757531971517]}}, {"type": "Feature", "properties": {"norad_id": 33625, "name": "FENGYUN 1C DEB", "group": "fengyun-1c-debris", "lat": -17.108219922667484, "lon": -72.07832893017238, "alt_km": 721.1301055389667, "timestamp": "2025-12-25T09:48:52.576824+00:00", "meta": {"OBJECT_NAME": "FENGYUN 1C DEB", "OBJECT_ID": "1999-025DDJ", "EPOCH": "2025-12-22T18:29:10.172832", "MEAN_MOTION": 14.61162738, "ECCENTRICITY": 0.02254632, "INCLINATION": 98.6202, "RA_OF_ASC_NODE": 107.8479, "ARG_OF_PERICENTER": 104.3386, "MEAN_ANOMALY": 258.2958, "EPHEMERIS_TYPE": 0, "CLASSIFICATION_TYPE": "U", "NORAD_CAT_ID": 33625, "ELEMENT_SET_NO": 999, "REV_AT_EPOCH": 61537, "BSTAR": 0.0010940286, "MEAN_MOTION_DOT": 7.684e-05, "MEAN_MOTION_DDOT": 0}, "tle": {"line1": "1 33625U 99025DDJ 25356.77025663  .00007684  00000+0  10940-2 0  9991", "line2": "2 33625  98.6202 107.8479 0225463 104.3386 258.2958 14.61162738615371"}}, "geometry": {"type": "Point", "coordinates": [-72.07832893017238, -17.108219922667484]}}, {"type": "Feature", "properties": {"norad_id": 33630, "name": "FENGYUN 1C DEB", "group": "fengyun-1c-debris", "lat": 6.472164471600393, "lon": -73.78557335651706, "alt_km": 910.6382842290504, "timestamp": "2025-12-25T09:48:52.576834+00:00", "meta": {"OBJECT_NAME": "FENGYUN 1C DEB", "OBJECT_ID": "1999-025DDP", "EPOCH": "2025-12-25T00:32:20.779008", "MEAN_MOTION": 14.17738798, "ECCENTRICITY": 0.0134758, "INCLINATION": 98.616, "RA_OF_ASC_NODE": 104.8539, "ARG_OF_PERICENTER": 32.9099, "MEAN_ANOMALY": 328.0377, "EPHEMERIS_TYPE": 0, "CLASSIFICATION_TYPE": "U", "NORAD_CAT_ID": 33630, "ELEMENT_SET_NO": 999, "REV_AT_EPOCH": 64585, "BSTAR": 0.00032838, "MEAN_MOTION_DOT": 6.9e-06, "MEAN_MOTION_DDOT": 0}, "tle": {"line1": "1 33630U 99025DDP 25359.02246272  .00000690  00000+0  32838-3 0  9990", "line2": "2 33630  98.6160 104.8539 0134758  32.9099 328.0377 14.17738798645850"}}, "geometry": {"type": "Point", "coordinates": [-73.78557335651706, 6.472164471600393]}}, {"type": "Feature", "properties": {"norad_id": 33633, "name": "FENGYUN 1C DEB", "group": "fengyun-1c-debris", "lat": -68.37932083160493, "lon": 117.69216736782403, "alt_km": 894.0069434130728, "timestamp": "2025-12-25T09:48:52.576844+00:00", "meta": {"OBJECT_NAME": "FENGYUN 1C DEB", "OBJECT_ID": "1999-025DDS", "EPOCH": "2025-12-20T05:05:42.485856", "MEAN_MOTION": 14.19397127, "ECCENTRICITY": 0.00829513, "INCLINATION": 99.057, "RA_OF_ASC_NODE": 88.6497, "ARG_OF_PERICENTER": 129.8844, "MEAN_ANOMALY": 260.3067, "EPHEMERIS_TYPE": 0, "CLASSIFICATION_TYPE": "U", "NORAD_CAT_ID": 33633, "ELEMENT_SET_NO": 999, "REV_AT_EPOCH": 90817, "BSTAR": 0.0014541583, "MEAN_MOTION_DOT": 3.12e-05, "MEAN_MOTION_DDOT": 0}, "tle": {"line1": "1 33633U 99025DDS 25354.21229729  .00003120  00000+0  14542-2 0  9999", "line2": "2 33633  99.0570  88.6497 0082951 129.8844 260.3067 14.19397127908176"}}, "geometry": {"type": "Point", "coordinates": [117.69216736782403, -68.37932083160493]}}, {"type": "Feature", "properties": {"norad_id": 33637, "name": "FENGYUN 1C DEB", "group": "fengyun-1c-debris", "lat": -62.28789423047303, "lon": -152.30645003163605, "alt_km": 813.5372503022609, "timestamp": "2025-12-25T09:48:52.576854+00:00", "meta": {"OBJECT_NAME": "FENGYUN 1C DEB", "OBJECT_ID": "1999-025DDW", "EPOCH": "2025-12-22T20:31:28.911936", "MEAN_MOTION": 14.36813194, "ECCENTRICITY": 0.008304, "INCLINATION": 98.4926, "RA_OF_ASC_NODE": 41.7001, "ARG_OF_PERICENTER": 121.6537, "MEAN_ANOMALY": 239.2783, "EPHEMERIS_TYPE": 0, "CLASSIFICATION_TYPE": "U", "NORAD_CAT_ID": 33637, "ELEMENT_SET_NO": 999, "REV_AT_EPOCH": 64983, "BSTAR": 0.0011662, "MEAN_MOTION_DOT": 3.541e-05, "MEAN_MOTION_DDOT": 0}, "tle": {"line1": "1 33637U 99025DDW 25356.85519574  .00003541  00000+0  11662-2 0  9992", "line2": "2 33637  98.4926  41.7001 0083040 121.6537 239.2783 14.36813194649839"}}, "geometry": {"type": "Point", "coordinates": [-152.30645003163605, -62.28789423047303]}}, {"type": "Feature", "properties": {"norad_id": 33638, "name": "FENGYUN 1C DEB", "group": "fengyun-1c-debris", "lat": 1.082938509161046, "lon": 68.74723394972335, "alt_km": 904.628541651492, "timestamp": "2025-12-25T09:48:52.576864+00:00", "meta": {"OBJECT_NAME": "FENGYUN 1C DEB", "OBJECT_ID": "1999-025DDX", "EPOCH": "2025-12-22T12:31:35.618592", "MEAN_MOTION": 13.69332139, "ECCENTRICITY": 0.02639098, "INCLINATION": 98.4648, "RA_OF_ASC_NODE": 246.0451, "ARG_OF_PERICENTER": 246.8978, "MEAN_ANOMALY": 110.4157, "EPHEMERIS_TYPE": 0, "CLASSIFICATION_TYPE": "U", "NORAD_CAT_ID": 33638, "ELEMENT_SET_NO": 999, "REV_AT_EPOCH": 61049, "BSTAR": 0.000991659, "MEAN_MOTION_DOT": 1.061e-05, "MEAN_MOTION_DDOT": 0}, "tle": {"line1": "1 33638U 99025DDX 25356.52194003  .00001061  00000+0  99166-3 0  9994", "line2": "2 33638  98.4648 246.0451 0263909 246.8978 110.4157 13.69332139610498"}}, "geometry": {"type": "Point", "coordinates": [68.74723394972335, 1.082938509161046]}}, {"type": "Feature", "properties": {"norad_id": 33639, "name": "FENGYUN 1C DEB", "group": "fengyun-1c-debris", "lat": 52.63953863062889, "lon": -77.79859553304931, "alt_km": 771.443653839543, "timestamp": "2025-12-25T09:48:52.576873+00:00", "meta": {"OBJECT_NAME": "FENGYUN 1C DEB", "OBJECT_ID": "1999-025DDY", "EPOCH": "2025-12-14T11:30:34.684704", "MEAN_MOTION": 14.40475035, "ECCENTRICITY": 0.00499213, "INCLINATION": 98.7123, "RA_OF_ASC_NODE": 79.4896, "ARG_OF_PERICENTER": 283.4225, "MEAN_ANOMALY": 76.1402, "EPHEMERIS_TYPE": 0, "CLASSIFICATION_TYPE": "U", "NORAD_CAT_ID": 33639, "ELEMENT_SET_NO": 999, "REV_AT_EPOCH": 60607, "BSTAR": 0.0023798225, "MEAN_MOTION_DOT": 7.641e-05, "MEAN_MOTION_DDOT": 0}, "tle": {"line1": "1 33639U 99025DDY 25348.47956811  .00007641  00000+0  23798-2 0  9990", "line2": "2 33639  98.7123  79.4896 0049921 283.4225  76.1402 14.40475035606072"}}, "geometry": {"type": "Point", "coordinates": [-77.79859553304931, 52.63953863062889]}}, {"type": "Feature", "properties": {"norad_id": 33640, "name": "FENGYUN 1C DEB", "group": "fengyun-1c-debris", "lat": -20.224349881568934, "lon": 119.4085454210055, "alt_km": 730.6319649339612, "timestamp": "2025-12-25T09:48:52.576883+00:00", "meta": {"OBJECT_NAME": "FENGYUN 1C DEB", "OBJECT_ID": "1999-025DDZ", "EPOCH": "2025-12-23T07:04:32.877408", "MEAN_MOTION": 14.45927591, "ECCENTRICITY": 0.00912968, "INCLINATION": 98.8427, "RA_OF_ASC_NODE": 300.4931, "ARG_OF_PERICENTER": 128.1562, "MEAN_ANOMALY": 232.79, "EPHEMERIS_TYPE": 0, "CLASSIFICATION_TYPE": "U", "NORAD_CAT_ID": 33640, "ELEMENT_SET_NO": 999, "REV_AT_EPOCH": 92495, "BSTAR": 0.00042293088, "MEAN_MOTION_DOT": 1.533e-05, "MEAN_MOTION_DDOT": 0}, "tle": {"line1": "1 33640U 99025DDZ 25357.29482497  .00001533  00000+0  42293-3 0  9992", "line2": "2 33640  98.8427 300.4931 0091296 128.1562 232.7900 14.45927591924957"}}, "geometry": {"type": "Point", "coordinates": [119.4085454210055, -20.224349881568934]}}, {"type": "Feature", "properties": {"norad_id": 33648, "name": "FENGYUN 1C DEB", "group": "fengyun-1c-debris", "lat": 9.75759276031378, "lon": -3.769909378343316, "alt_km": 885.7974213106245, "timestamp": "2025-12-25T09:48:52.576893+00:00", "meta": {"OBJECT_NAME": "FENGYUN 1C DEB", "OBJECT_ID": "1999-025DEH", "EPOCH": "2025-12-24T20:09:35.992224", "MEAN_MOTION": 14.11780562, "ECCENTRICITY": 0.00694483, "INCLINATION": 98.7197, "RA_OF_ASC_NODE": 357.1894, "ARG_OF_PERICENTER": 139.9723, "MEAN_ANOMALY": 220.6597, "EPHEMERIS_TYPE": 0, "CLASSIFICATION_TYPE": "U", "NORAD_CAT_ID": 33648, "ELEMENT_SET_NO": 999, "REV_AT_EPOCH": 64547, "BSTAR": 0.00010451089, "MEAN_MOTION_DOT": 1.53e-06, "MEAN_MOTION_DDOT": 0}, "tle": {"line1": "1 33648U 99025DEH 25358.83999991  .00000153  00000+0  10451-3 0  9991", "line2": "2 33648  98.7197 357.1894 0069448 139.9723 220.6597 14.11780562645471"}}, "geometry": {"type": "Point", "coordinates": [-3.769909378343316, 9.75759276031378]}}, {"type": "Feature", "properties": {"norad_id": 33650, "name": "FENGYUN 1C DEB", "group": "fengyun-1c-debris", "lat": -23.37189023375099, "lon": -19.88244129175633, "alt_km": 1038.6880937075712, "timestamp": "2025-12-25T09:48:52.576903+00:00", "meta": {"OBJECT_NAME": "FENGYUN 1C DEB", "OBJECT_ID": "1999-025DEK", "EPOCH": "2025-12-24T05:11:24.590112", "MEAN_MOTION": 13.89212225, "ECCENTRICITY": 0.01495912, "INCLINATION": 98.9861, "RA_OF_ASC_NODE": 162.8878, "ARG_OF_PERICENTER": 47.7284, "MEAN_ANOMALY": 313.6448, "EPHEMERIS_TYPE": 0, "CLASSIFICATION_TYPE": "U", "NORAD_CAT_ID": 33650, "ELEMENT_SET_NO": 999, "REV_AT_EPOCH": 68968, "BSTAR": 0.00062187935, "MEAN_MOTION_DOT": 7.85e-06, "MEAN_MOTION_DDOT": 0}, "tle": {"line1": "1 33650U 99025DEK 25358.21625683  .00000785  00000+0  62188-3 0  9995", "line2": "2 33650  98.9861 162.8878 0149591  47.7284 313.6448 13.89212225689682"}}, "geometry": {"type": "Point", "coordinates": [-19.88244129175633, -23.37189023375099]}}]}